OBJECT_NAME,OBJECT_ID,EPOCH,MEAN_MOTION,ECCENTRICITY,INCLINATION,RA_OF_ASC_NODE,ARG_OF_PERICENTER,MEAN_ANOMALY,EPHEMERIS_TYPE,CLASSIFICATION_TYPE,NORAD_CAT_ID,ELEMENT_SET_NO,REV_AT_EPOCH,BSTAR,MEAN_MOTION_DOT,MEAN_MOTION_DDOT
SL-14 R/B,1990-010B,2026-03-01T20:42:49.953024,14.83561019,.0019036,82.4993,274.7424,329.6298,30.3813,0,U,20466,999,92732,.5535E-4,.481E-5,0
SL-14 R/B,1990-018B,2026-03-01T12:51:35.304192,14.82134195,.0017558,82.5190,230.7117,116.7542,243.5471,0,U,20511,999,92137,.7361E-4,.611E-5,0
HST,1990-037B,2026-03-01T09:28:14.039616,15.29328400,.0001584,28.4699,96.5806,41.9765,318.0951,0,U,20580,999,77204,.28681E-3,.8629E-4,0
SL-16 R/B,1990-046B,2026-03-01T20:24:35.151840,14.15014986,.0016071,71.0005,314.3784,310.1899,49.7816,0,U,20625,999,84728,-.52715E-4,-.15E-5,0
COSMOS 2084,1990-055A,2026-03-01T19:38:37.668192,15.05591880,.0018213,62.7921,2.4212,188.1686,171.9120,0,U,20663,999,93513,.24661E-3,.3383E-4,0
SL-6 R/B(2),1990-055D,2026-03-01T20:33:56.590272,15.03550401,.0023523,62.7821,280.4880,345.0541,14.9860,0,U,20666,999,93701,.18142E-3,.2302E-4,0
SL-8 R/B,1990-078B,2026-03-01T13:52:57.016416,14.88746040,.036418,82.8995,258.6057,41.2322,321.5795,0,U,20775,999,80809,.4802E-3,.16351E-3,0
SL-8 R/B,1991-006B,2026-03-01T20:43:41.309184,13.77493201,.0023476,82.9463,175.8634,59.4326,58.4915,0,U,21088,999,76299,.2821E-4,.44E-6,0
OKEAN-3,1991-039A,2026-03-01T19:58:36.201216,15.04737753,.0014427,82.5201,344.4534,6.0249,354.1149,0,U,21397,999,86385,.26283E-3,.3737E-4,0
COSMOS 2151,1991-042A,2026-03-01T19:29:34.742688,15.00068239,.0014148,82.4932,91.2769,87.1188,273.1655,0,U,21422,999,86201,.15944E-3,.2016E-4,0
SL-14 R/B,1991-042B,2026-03-01T12:28:10.677792,14.81819589,.0015566,82.4909,227.8443,267.8896,92.0536,0,U,21423,999,85186,.69554E-4,.573E-5,0
ERS-1,1991-050A,2026-03-01T15:13:00.583392,14.39441961,.0031202,98.7887,78.6661,224.7269,135.1401,0,U,21574,999,81457,.13559E-3,.378E-5,0
ARIANE 40 R/B,1991-050F,2026-03-01T16:53:58.525440,14.42886685,.0004389,98.2030,113.2398,98.4973,261.6715,0,U,21610,999,81784,.11448E-3,.341E-5,0
INTERCOSMOS 25,1991-086A,2026-03-01T19:33:26.071776,12.11974182,.1487081,82.6067,314.7672,133.8975,239.5023,0,U,21819,999,49573,.31356E-3,.1633E-4,0
SL-8 R/B,1992-008B,2026-03-01T20:35:57.914016,13.75969852,.003517,82.9229,273.6054,154.6813,216.6383,0,U,21876,999,70834,-.78935E-5,.8E-7,0
SL-8 R/B,1992-020B,2026-03-01T18:35:36.749760,13.75548406,.0027977,82.9341,159.6364,321.8144,154.1826,0,U,21938,999,70004,.62064E-4,.75E-6,0
USA 81,1992-023A,2026-03-01T16:40:49.473120,14.32364760,.0002675,85.0100,136.0526,84.2846,275.8652,0,U,21949,999,9364,.64694E-4,.195E-5,0
COSMOS 2219,1992-076A,2026-03-01T09:16:00.463008,14.14087532,.0019415,71.0611,35.4251,218.1159,141.8591,0,U,22219,999,71720,.20866E-3,.351E-5,0
SL-16 R/B,1992-076B,2026-03-01T20:53:30.830208,14.16859396,.0010707,70.9996,204.8431,110.6991,3.9166,0,U,22220,999,72072,.1038E-3,.16E-5,0
COSMOS 2221,1992-080A,2026-03-01T16:17:29.224608,14.96164925,.0013334,82.5021,286.7555,215.4071,144.6267,0,U,22236,999,77959,.1731E-3,.1978E-4,0
SL-16 R/B,1992-093B,2026-03-01T07:54:51.098976,14.15449751,.00062,71.0235,21.8141,302.6562,57.3963,0,U,22285,999,71197,-.82513E-5,-.64E-6,0
COSMOS 2228,1992-094A,2026-03-01T18:24:54.156672,14.97142566,.0017304,82.5144,244.8975,332.8963,27.1354,0,U,22286,999,77487,.22421E-3,.2622E-4,0
SL-16 R/B,1993-016B,2026-03-01T19:02:31.106112,14.15303856,.0011238,71.0054,231.7660,325.3138,34.7251,0,U,22566,999,70105,.19784E-3,.338E-5,0
COSMOS 2242,1993-024A,2026-03-01T16:18:05.357952,14.96510708,.0015796,82.5159,274.3803,337.5468,22.5061,0,U,22626,999,77919,.1867E-3,.2151E-4,0
SL-16 R/B,1993-059B,2026-03-01T08:38:29.585760,14.17231508,.0018874,70.9914,28.6906,228.1805,131.7708,0,U,22803,999,67835,.11042E-3,.175E-5,0
ARIANE 40 R/B,1993-061H,2026-03-01T19:23:06.742752,14.32856086,.0009691,98.4934,129.8504,311.1917,48.8431,0,U,22830,999,69297,.10378E-3,.24E-5,0
COSMOS 2278,1994-023A,2026-03-01T19:38:04.480224,14.14374158,.0007586,71.0538,191.5641,29.3056,330.8491,0,U,23087,999,64369,.20829E-3,.352E-5,0
SL-16 R/B,1994-023B,2026-03-01T19:08:17.531232,14.15013477,.0005533,70.9986,87.4630,293.2536,66.8004,0,U,23088,999,64497,.77363E-6,-.46E-6,0
SL-16 R/B,1994-074B,2026-03-01T20:00:02.314368,14.79397158,.000528,97.7120,91.9690,240.8008,292.2257,0,U,23343,999,68608,.83906E-4,.576E-5,0
SL-16 R/B,1994-077B,2026-03-01T20:27:59.842080,14.15562881,.0003519,70.9849,8.9747,222.3239,137.7612,0,U,23405,999,61512,-.10007E-3,-.244E-5,0
ARIANE 40+ R/B,1995-021B,2026-03-01T20:02:32.345376,14.39765689,.0007313,98.4514,132.4236,157.3320,317.1257,0,U,23561,999,61811,.11988E-3,.332E-5,0
